NORAD_CAT_ID,OBJECT_NAME,OBJECT_TYPE,EPOCH,MEAN_MOTION,ECCENTRICITY,INCLINATION,RA_OF_ASC_NODE,ARG_OF_PERICENTER,MEAN_ANOMALY,BSTAR,MEAN_MOTION_DOT,MEAN_MOTION_DDOT,TLE_LINE0,TLE_LINE1,TLE_LINE2,SEMIMAJOR_AXIS,PERIOD,APOGEE,PERIGEE,DECAYED
53421.0,STARLINK-4545,PAYLOAD,2023-12-10 19:50:37,15.0884319,0.0001298,53.2155,194.63,87.9845,272.1295,4.9585e-06,-2.09e-06,0.0,0 STARLINK-4545,1 53421U 22097AK  23344.82681884 -.00000209  00000-0  49585-5 0  9994,2 53421  53.2155 194.6300 0001298  87.9845 272.1295 15.08843190 74392,6917.871,95.437,540.634,538.838,0.0
53421.0,STARLINK-4545,PAYLOAD,2023-12-11 21:16:47,15.08838366,0.0001326,53.2149,189.8724,96.7218,263.3925,5.1605e-05,5.33e-06,0.0,0 STARLINK-4545,1 53421U 22097AK  23345.88666296  .00000533  00000-0  51605-4 0  9995,2 53421  53.2149 189.8724 0001326  96.7218 263.3925 15.08838366 75016,6917.885,95.438,540.668,538.833,0.0
53421.0,STARLINK-4545,PAYLOAD,2023-12-12 21:07:34,15.08843258,0.0001322,53.2151,185.4121,92.9942,267.1201,8.0505e-05,9.94e-06,0.0,0 STARLINK-4545,1 53421U 22097AK  23346.88026008  .00000994  00000-0  80505-4 0  9999,2 53421  53.2151 185.4121 0001322  92.9942 267.1201 15.08843258 75161,6917.87,95.437,540.65,538.821,0.0
53421.0,STARLINK-4545,PAYLOAD,2023-12-13 19:22:58,15.08839766,0.0001391,53.2152,181.2503,86.1734,273.9417,4.1106e-05,3.66e-06,0.0,0 STARLINK-4545,1 53421U 22097AK  23347.80762358  .00000366  00000-0  41106-4 0  9994,2 53421  53.2152 181.2503 0001391  86.1734 273.9417 15.08839766 74847,6917.881,95.438,540.708,538.784,0.0
53421.0,STARLINK-4545,PAYLOAD,2023-12-14 19:13:45,15.08840783,0.0001466,53.2154,176.7917,80.6914,279.4244,3.3195e-05,2.4e-06,0.0,0 STARLINK-4545,1 53421U 22097AK  23348.80122398  .00000240  00000-0  33195-4 0  9999,2 53421  53.2154 176.7917 0001466  80.6914 279.4244 15.08840783 75457,6917.878,95.438,540.757,538.729,0.0
53421.0,STARLINK-4545,PAYLOAD,2023-12-15 19:04:33,15.08835872,0.0001442,53.2156,172.3263,101.3725,258.743,1.8845e-05,1.2e-07,0.0,0 STARLINK-4545,1 53421U 22097AK  23349.79482711  .00000012  00000-0  18845-4 0  9998,2 53421  53.2156 172.3263 0001442 101.3725 258.7430 15.08835872 75146,6917.893,95.438,540.756,538.76,0.0
53421.0,STARLINK-4545,PAYLOAD,2023-12-16 18:55:19,15.08842354,0.0001395,53.2159,167.8634,103.9719,256.1428,9.5467e-05,1.232e-05,0.0,0 STARLINK-4545,1 53421U 22097AK  23350.78842184  .00001232  00000-0  95467-4 0  9993,2 53421  53.2159 167.8634 0001395 103.9719 256.1428 15.08842354 75296,6917.873,95.437,540.703,538.773,0.0
53421.0,STARLINK-4545,PAYLOAD,2023-12-17 17:10:43,15.08844048,0.0001573,53.2154,163.6998,117.8757,242.2394,9.6043e-05,1.241e-05,0.0,0 STARLINK-4545,1 53421U 22097AK  23351.71578031  .00001241  00000-0  96043-4 0  9995,2 53421  53.2154 163.6998 0001573 117.8757 242.2394 15.08844048 75898,6917.868,95.437,540.821,538.645,0.0
53421.0,STARLINK-4545,PAYLOAD,2023-12-18 18:36:53,15.0884699,0.0001216,53.216,158.9422,96.3554,263.7577,2.1599e-06,-2.53e-06,0.0,0 STARLINK-4545,1 53421U 22097AK  23352.77562319 -.00000253  00000-0  21599-5 0  9992,2 53421  53.2160 158.9422 0001216  96.3554 263.7577 15.08846990 75590,6917.859,95.437,540.565,538.883,0.0
53421.0,STARLINK-4545,PAYLOAD,2023-12-19 18:27:40,15.08845732,0.000128,53.2152,154.4825,114.9706,245.1419,0.00027093,4.027e-05,0.0,0 STARLINK-4545,1 53421U 22097AK  23353.76921538  .00004027  00000-0  27093-3 0  9999,2 53421  53.2152 154.4825 0001280 114.9706 245.1419 15.08845732 76207,6917.863,95.437,540.613,538.842,0.0
53421.0,STARLINK-4545,PAYLOAD,2023-12-20 18:18:28,15.08838775,0.0001405,53.217,150.0199,79.7048,280.4102,3.5778e-05,2.81e-06,0.0,0 STARLINK-4545,1 53421U 22097AK  23354.76282860  .00000281  00000-0  35778-4 0  9996,2 53421  53.2170 150.0199 0001405  79.7048 280.4102 15.08838775 75893,6917.884,95.438,540.721,538.777,0.0
53421.0,STARLINK-4545,PAYLOAD,2023-12-21 14:58:29,15.08845119,0.0001377,53.2167,146.1556,79.5351,280.5797,-4.198e-05,-9.56e-06,0.0,0 STARLINK-4545,1 53421U 22097AK  23355.62394895 -.00000956  00000-0 -41980-4 0  9997,2 53421  53.2167 146.1556 0001377  79.5351 280.5797 15.08845119 76482,6917.865,95.437,540.682,538.777,0.0
53421.0,STARLINK-4545,PAYLOAD,2023-12-22 11:38:30,15.08839137,0.0001456,53.2165,142.2913,75.8124,284.303,0.00011073,1.475e-05,0.0,0 STARLINK-4545,1 53421U 22097AK  23356.48506965  .00001475  00000-0  11073-3 0  9999,2 53421  53.2165 142.2913 0001456  75.8124 284.3030 15.08839137 76158,6917.883,95.438,540.755,538.741,0.0
53421.0,STARLINK-4545,PAYLOAD,2023-12-22 14:49:16,15.08839097,0.0001446,53.2165,141.6968,75.636,284.4793,0.00010807,1.432e-05,0.0,0 STARLINK-4545,1 53421U 22097AK  23356.61755037  .00001432  00000-0  10807-3 0  9997,2 53421  53.2165 141.6968 0001446  75.6360 284.4793 15.08839097 76635,6917.883,95.438,540.748,538.748,0.0
53421.0,STARLINK-4545,PAYLOAD,2023-12-22 16:24:39,15.08840709,0.0001481,53.2168,141.399,74.3057,285.8098,0.00011888,1.605e-05,0.0,0 STARLINK-4545,1 53421U 22097AK  23356.68378926  .00001605  00000-0  11888-3 0  9994,2 53421  53.2168 141.3990 0001481  74.3057 285.8098 15.08840709 76644,6917.878,95.438,540.768,538.719,0.0
53421.0,STARLINK-4545,PAYLOAD,2023-12-23 14:40:04,15.08798688,0.0001185,53.2175,137.2399,95.2217,264.891,0.000615,9.502e-05,0.0,0 STARLINK-4545,1 53421U 22097AK  23357.61115943  .00009502  00000-0  61500-3 0  9996,2 53421  53.2175 137.2399 0001185  95.2217 264.8910 15.08798688 76783,6918.007,95.44,540.691,539.052,0.0
53421.0,STARLINK-4545,PAYLOAD,2023-12-23 16:15:26,15.08840397,0.0001428,53.2166,136.9395,76.9945,283.1206,5.9557e-05,6.6e-06,0.0,0 STARLINK-4545,1 53421U 22097AK  23357.67739194  .00000660  00000-0  59557-4 0  9998,2 53421  53.2166 136.9395 0001428  76.9945 283.1206 15.08840397 76337,6917.879,95.438,540.732,538.756,0.0
53421.0,STARLINK-4545,PAYLOAD,2023-12-24 14:30:50,15.08843491,0.0001483,53.2179,132.7801,91.0939,269.0223,7.4105e-05,8.92e-06,0.0,0 STARLINK-4545,1 53421U 22097AK  23358.60474893  .00000892  00000-0  74105-4 0  9997,2 53421  53.2179 132.7801 0001483  91.0939 269.0223 15.08843491 76935,6917.87,95.437,540.761,538.709,0.0
53421.0,STARLINK-4545,PAYLOAD,2023-12-24 16:06:13,15.08845685,0.0001498,53.2179,132.4828,91.8109,268.3055,9.2263e-05,1.181e-05,0.0,0 STARLINK-4545,1 53421U 22097AK  23358.67098687  .00001181  00000-0  92263-4 0  9994,2 53421  53.2179 132.4828 0001498  91.8109 268.3055 15.08845685 76947,6917.863,95.437,540.764,538.692,0.0
53421.0,STARLINK-4545,PAYLOAD,2023-12-25 09:35:28,15.08837789,0.0001421,53.2175,129.2094,81.3923,278.723,4.7957e-05,4.75e-06,0.0,0 STARLINK-4545,1 53421U 22097AK  23359.39963397  .00000475  00000-0  47957-4 0  9998,2 53421  53.2175 129.2094 0001421  81.3923 278.7230 15.08837789 76593,6917.887,95.438,540.735,538.769,0.0
53421.0,STARLINK-4545,PAYLOAD,2023-12-25 14:21:37,15.08839635,0.0001429,53.2171,128.3169,102.9661,257.1491,5.5726e-05,5.99e-06,0.0,0 STARLINK-4545,1 53421U 22097AK  23359.59835178  .00000599  00000-0  55726-4 0  9995,2 53421  53.2171 128.3169 0001429 102.9661 257.1491 15.08839635 77086,6917.882,95.438,540.735,538.758,0.0
53421.0,STARLINK-4545,PAYLOAD,2023-12-26 14:12:25,15.08837875,0.0001274,53.2167,123.8581,87.4005,272.7132,-4.7913e-05,-1.05e-05,0.0,0 STARLINK-4545,1 53421U 22097AK  23360.59195854 -.00001050  00000-0 -47913-4 0  9991,2 53421  53.2167 123.8581 0001274  87.4005 272.7132 15.08837875 77232,6917.887,95.438,540.633,538.871,0.0
53421.0,STARLINK-4545,PAYLOAD,2023-12-26 15:47:48,15.08838515,0.0001238,53.2164,123.56,81.8062,278.3071,-4.5497e-05,-1.012e-05,0.0,0 STARLINK-4545,1 53421U 22097AK  23360.65819822 -.00001012  00000-0 -45497-4 0  9999,2 53421  53.2164 123.5600 0001238  81.8062 278.3071 15.08838515 76784,6917.885,95.438,540.606,538.893,0.0
53421.0,STARLINK-4545,PAYLOAD,2023-12-27 14:03:11,15.08843482,0.0001214,53.2163,119.3975,73.856,286.2566,0.00011696,1.574e-05,0.0,0 STARLINK-4545,1 53421U 22097AK  23361.58555221  .00001574  00000-0  11696-3 0  9996,2 53421  53.2163 119.3975 0001214  73.8560 286.2566 15.08843482 77382,6917.87,95.437,540.575,538.895,0.0
53421.0,STARLINK-4545,PAYLOAD,2023-12-27 17:13:57,15.08852875,0.0001261,53.2167,118.8016,78.7776,281.3358,0.00018036,2.585e-05,0.0,0 STARLINK-4545,1 53421U 22097AK  23361.71802407  .00002585  00000-0  18036-3 0  9990,2 53421  53.2167 118.8016 0001261  78.7776 281.3358 15.08852875 76943,6917.841,95.437,540.578,538.834,0.0
53421.0,STARLINK-4545,PAYLOAD,2023-12-28 12:18:37,15.0881973,0.000129,53.2165,115.2314,81.1813,278.9326,-4.3382e-05,-9.78e-06,0.0,0 STARLINK-4545,1 53421U 22097AK  23362.51293789 -.00000978  00000-0 -43382-4 0  9995,2 53421  53.2165 115.2314 0001290  81.1813 278.9326 15.08819730 77069,6917.942,95.439,540.7,538.915,0.0
53421.0,STARLINK-4545,PAYLOAD,2023-12-28 13:54:01,15.08819705,0.0001228,53.2168,114.9349,81.0446,279.0685,-4.1081e-05,-9.41e-06,0.0,0 STARLINK-4545,1 53421U 22097AK  23362.57917871 -.00000941  00000-0 -41081-4 0  9990,2 53421  53.2168 114.9349 0001228  81.0446 279.0685 15.08819705 77532,6917.942,95.439,540.657,538.958,0.0
53421.0,STARLINK-4545,PAYLOAD,2023-12-29 12:09:23,15.0884641,0.0001407,53.2174,110.7774,75.8565,284.2584,-1.1375e-05,-4.69e-06,0.0,0 STARLINK-4545,1 53421U 22097AK  23363.50652535 -.00000469  00000-0 -11375-4 0  9995,2 53421  53.2174 110.7774 0001407  75.8565 284.2584 15.08846410 77211,6917.861,95.437,540.699,538.752,0.0
53421.0,STARLINK-4545,PAYLOAD,2023-12-29 13:44:46,15.0885467,0.0001293,53.2174,110.4749,88.6225,271.4915,5.6588e-05,6.13e-06,0.0,0 STARLINK-4545,1 53421U 22097AK  23363.57275661  .00000613  00000-0  56588-4 0  9997,2 53421  53.2174 110.4749 0001293  88.6225 271.4915 15.08854670 77682,6917.836,95.437,540.595,538.806,0.0
53421.0,STARLINK-4545,PAYLOAD,2023-12-30 12:00:10,15.08831722,0.0001353,53.2176,106.3156,87.2005,272.9142,0.00040259,6.124e-05,0.0,0 STARLINK-4545,1 53421U 22097AK  23364.50012341  .00006124  00000-0  40259-3 0  9995,2 53421  53.2176 106.3156 0001353  87.2005 272.9142 15.08831722 77364,6917.906,95.438,540.707,538.835,0.0
